1 41862U 16069D   18270.40371521  .00000014  00000-0  00000+0 0  9998
2 41862  54.5816 179.3315 0002590 281.5897  78.4358  1.70472934 11573
